{
    "links": {
        "self": "http://www.neowsapp.com/rest/v1/neo/54006057?api_key=iIulBulltgU6a56xZRHN4H3l9WmuAYTsLGpBGhQ2"
    },
    "id": "54006057",
    "neo_reference_id": "54006057",
    "name": "(2020 DW4)",
    "designation": "2020 DW4",
    "nasa_jpl_url": "http://ssd.jpl.nasa.gov/sbdb.cgi?sstr=54006057",
    "absolute_magnitude_h": 24.987,
    "estimated_diameter": {
        "kilometers": {
            "estimated_diameter_min": 0.0267396043,
            "estimated_diameter_max": 0.059791573
        },
        "meters": {
            "estimated_diameter_min": 26.7396043272,
            "estimated_diameter_max": 59.7915729671
        },
        "miles": {
            "estimated_diameter_min": 0.0166152147,
            "estimated_diameter_max": 0.0371527495
        },
        "feet": {
            "estimated_diameter_min": 87.7283634609,
            "estimated_diameter_max": 196.1665842534
        }
    },
    "is_potentially_hazardous_asteroid": false,
    "close_approach_data": [
        {
            "close_approach_date": "2020-02-25",
            "close_approach_date_full": "2020-Feb-25 21:08",
            "epoch_date_close_approach": 1582664880000,
            "relative_velocity": {
                "kilometers_per_second": "7.8599317913",
                "kilometers_per_hour": "28295.7544488009",
                "miles_per_hour": "17581.8814240341"
            },
            "miss_distance": {
                "astronomical": "0.0387495909",
                "lunar": "15.0735908601",
                "kilometers": "5796856.262011383",
                "miles": "3601999.4542797654"
            },
            "orbiting_body": "Earth"
        },
        {
            "close_approach_date": "2021-12-06",
            "close_approach_date_full": "2021-Dec-06 22:46",
            "epoch_date_close_approach": 1638830760000,
            "relative_velocity": {
                "kilometers_per_second": "2.9199701194",
                "kilometers_per_hour": "10511.8924297581",
                "miles_per_hour": "6531.681160035"
            },
            "miss_distance": {
                "astronomical": "1.8186577275",
                "lunar": "707.4578559975",
                "kilometers": "272067322.293040425",
                "miles": "169054794.897890865"
            },
            "orbiting_body": "Juptr"
        }
    ],
    "orbital_data": {
        "orbit_id": "4",
        "orbit_determination_date": "2020-03-27 05:58:31",
        "first_observation_date": "2020-02-29",
        "last_observation_date": "2020-03-26",
        "data_arc_in_days": 26,
        "observations_used": 36,
        "orbit_uncertainty": "7",
        "minimum_orbit_intersection": ".0384683",
        "jupiter_tisserand_invariant": "3.444",
        "epoch_osculation": "2459000.5",
        "eccentricity": ".55403362432968",
        "semi_major_axis": "2.202535013664541",
        "inclination": "3.508409327496088",
        "ascending_node_longitude": "13.77337752947997",
        "orbital_period": "1193.940429239759",
        "perihelion_distance": ".9822565573309542",
        "perihelion_argument": "123.8154444374621",
        "aphelion_distance": "3.422813469998128",
        "perihelion_time": "2458890.154895933631",
        "mean_anomaly": "33.27154059871065",
        "mean_motion": ".3015225811803942",
        "equinox": "J2000",
        "orbit_class": {
            "orbit_class_type": "APO",
            "orbit_class_description": "Near-Earth asteroid orbits which cross the Earth’s orbit similar to that of 1862 Apollo",
            "orbit_class_range": "a (semi-major axis) > 1.0 AU; q (perihelion) < 1.017 AU"
        }
    },
    "is_sentry_object": false
}